{
  "constellation": "oneweb",
  "timestamp": "2025-07-21T05:06:13.717346+00:00",
  "satellite_count": 651,
  "data": [
    {
      "satellite_name": "ONEWEB-0255",
      "catalog_number": 48973,
      "epoch_year": 2025,
      "epoch_day": 201.54544883,
      "first_derivative": 8.6e-07,
      "second_derivative": 0.0,
      "drag_term": 0.0,
      "inclination": 87.9049,
      "right_ascension": 294.8979,
      "eccentricity": 0.0002201,
      "argument_of_perigee": 93.5613,
      "mean_anomaly": 266.577,
      "mean_motion": 13.1659556,
      "revolution_number": 19602,
      "line1": "1 48973U 21060G   25201.54544883  .00000086  00000+0  19170-3 0  9995",
      "line2": "2 48973  87.9049 294.8979 0002201  93.5613 266.5770 13.16595560196022",
      "last_updated": "2025-07-21T05:06:13.714239+00:00",
      "constellation": "oneweb"
    },
    {
      "satellite_name": "ONEWEB-0256",
      "catalog_number": 48974,
      "epoch_year": 2025,
      "epoch_day": 201.49556623,
      "first_derivative": 1.37e-06,
      "second_derivative": 0.0,
      "drag_term": 0.0,
      "inclination": 87.9053,
      "right_ascension": 294.9189,
      "eccentricity": 0.0002085,
      "argument_of_perigee": 103.5681,
      "mean_anomaly": 256.5682,
      "mean_motion": 13.16596231,
      "revolution_number": 19598,
      "line1": "1 48974U 21060H   25201.49556623  .00000137  00000+0  32395-3 0  9996",
      "line2": "2 48974  87.9053 294.9189 0002085 103.5681 256.5682 13.16596231195980",
      "last_updated": "2025-07-21T05:06:13.714241+00:00",
      "constellation": "oneweb"
    },
    {
      "satellite_name": "ONEWEB-0257",
      "catalog_number": 48975,
      "epoch_year": 2025,
      "epoch_day": 201.30003903,
      "first_derivative": -1.1e-07,
      "second_derivative": 0.0,
      "drag_term": -6.1303e-05,
      "inclination": 87.9055,
      "right_ascension": 294.924,
      "eccentricity": 0.0002264,
      "argument_of_perigee": 98.7465,
      "mean_anomaly": 261.3923,
      "mean_motion": 13.16595172,
      "revolution_number": 19591,
      "line1": "1 48975U 21060J   25201.30003903 -.00000011  00000+0 -61303-4 0  9990",
      "line2": "2 48975  87.9055 294.9240 0002264  98.7465 261.3923 13.16595172195913",
      "last_updated": "2025-07-21T05:06:13.714243+00:00",
      "constellation": "oneweb"
    },
    {
      "satellite_name": "ONEWEB-0258",
      "catalog_number": 48976,
      "epoch_year": 2025,
      "epoch_day": 201.52961103,
      "first_derivative": 1e-07,
      "second_derivative": 0.0,
      "drag_term": -8.6339e-06,
      "inclination": 87.9051,
      "right_ascension": 294.9031,
      "eccentricity": 0.0001964,
      "argument_of_perigee": 97.6594,
      "mean_anomaly": 262.476,
      "mean_motion": 13.16595643,
      "revolution_number": 19723,
      "line1": "1 48976U 21060K   25201.52961103  .00000010  00000+0 -86339-5 0  9995",
      "line2": "2 48976  87.9051 294.9031 0001964  97.6594 262.4760 13.16595643197236",
      "last_updated": "2025-07-21T05:06:13.714245+00:00",
      "constellation": "oneweb"
    },
    {
      "satellite_name": "ONEWEB-0259",
      "catalog_number": 48977,
      "epoch_year": 2025,
      "epoch_day": 201.29528912,
      "first_derivative": -6.7e-07,
      "second_derivative": 0.0,
      "drag_term": -0.00020799000000000002,
      "inclination": 87.9056,
      "right_ascension": 294.9345,
      "eccentricity": 0.0002069,
      "argument_of_perigee": 95.6969,
      "mean_anomaly": 264.4398,
      "mean_motion": 13.16594688,
      "revolution_number": 19595,
      "line1": "1 48977U 21060L   25201.29528912 -.00000067  00000+0 -20799-3 0  9996",
      "line2": "2 48977  87.9056 294.9345 0002069  95.6969 264.4398 13.16594688195955",
      "last_updated": "2025-07-21T05:06:13.714247+00:00",
      "constellation": "oneweb"
    },
    {
      "satellite_name": "ONEWEB-0260",
      "catalog_number": 48978,
      "epoch_year": 2025,
      "epoch_day": 201.51456603,
      "first_derivative": 8.2e-07,
      "second_derivative": 0.0,
      "drag_term": 0.0,
      "inclination": 87.905,
      "right_ascension": 294.9167,
      "eccentricity": 0.0002338,
      "argument_of_perigee": 110.5888,
      "mean_anomaly": 249.5494,
      "mean_motion": 13.16595848,
      "revolution_number": 19596,
      "line1": "1 48978U 21060M   25201.51456603  .00000082  00000+0  18117-3 0  9995",
      "line2": "2 48978  87.9050 294.9167 0002338 110.5888 249.5494 13.16595848195969",
      "last_updated": "2025-07-21T05:06:13.714250+00:00",
      "constellation": "oneweb"
    },
    {
      "satellite_name": "ONEWEB-0261",
      "catalog_number": 48979,
      "epoch_year": 2025,
      "epoch_day": 201.71247285,
      "first_derivative": 9.5e-07,
      "second_derivative": 0.0,
      "drag_term": 0.0,
      "inclination": 87.9052,
      "right_ascension": 294.8787,
      "eccentricity": 0.000247,
      "argument_of_perigee": 97.8978,
      "mean_anomaly": 262.2433,
      "mean_motion": 13.16593155,
      "revolution_number": 19734,
      "line1": "1 48979U 21060N   25201.71247285  .00000095  00000+0  21405-3 0  9990",
      "line2": "2 48979  87.9052 294.8787 0002470  97.8978 262.2433 13.16593155197341",
      "last_updated": "2025-07-21T05:06:13.714252+00:00",
      "constellation": "oneweb"
    },
    {
      "satellite_name": "ONEWEB-0262",
      "catalog_number": 48980,
      "epoch_year": 2025,
      "epoch_day": 201.31270193,
      "first_derivative": -5.3e-07,
      "second_derivative": 0.0,
      "drag_term": -0.00017329000000000002,
      "inclination": 87.9056,
      "right_ascension": 294.9197,
      "eccentricity": 0.0002026,
      "argument_of_perigee": 89.3686,
      "mean_anomaly": 270.7677,
      "mean_motion": 13.16592607,
      "revolution_number": 19595,
      "line1": "1 48980U 21060P   25201.31270193 -.00000053  00000+0 -17329-3 0  9998",
      "line2": "2 48980  87.9056 294.9197 0002026  89.3686 270.7677 13.16592607195952",
      "last_updated": "2025-07-21T05:06:13.714254+00:00",
      "constellation": "oneweb"
    },
    {
      "satellite_name": "ONEWEB-0263",
      "catalog_number": 48981,
      "epoch_year": 2025,
      "epoch_day": 201.49636993,
      "first_derivative": 1.1e-06,
      "second_derivative": 0.0,
      "drag_term": 0.0,
      "inclination": 87.9056,
      "right_ascension": 294.9074,
      "eccentricity": 0.0002414,
      "argument_of_perigee": 91.8388,
      "mean_anomaly": 268.3019,
      "mean_motion": 13.16594168,
      "revolution_number": 19594,
      "line1": "1 48981U 21060Q   25201.49636993  .00000110  00000+0  25374-3 0  9993",
      "line2": "2 48981  87.9056 294.9074 0002414  91.8388 268.3019 13.16594168195941",
      "last_updated": "2025-07-21T05:06:13.714256+00:00",
      "constellation": "oneweb"
    },
    {
      "satellite_name": "ONEWEB-0264",
      "catalog_number": 48982,
      "epoch_year": 2025,
      "epoch_day": 201.53356472,
      "first_derivative": 2.2e-07,
      "second_derivative": 0.0,
      "drag_term": 0.0,
      "inclination": 87.9048,
      "right_ascension": 294.9051,
      "eccentricity": 0.0002095,
      "argument_of_perigee": 97.8899,
      "mean_anomaly": 262.2469,
      "mean_motion": 13.16596508,
      "revolution_number": 19724,
      "line1": "1 48982U 21060R   25201.53356472  .00000022  00000+0  22825-4 0  9991",
      "line2": "2 48982  87.9048 294.9051 0002095  97.8899 262.2469 13.16596508197243",
      "last_updated": "2025-07-21T05:06:13.714258+00:00",
      "constellation": "oneweb"
    },
    {
      "satellite_name": "ONEWEB-0266",
      "catalog_number": 48984,
      "epoch_year": 2025,
      "epoch_day": 201.55493586,
      "first_derivative": 7.2e-07,
      "second_derivative": 0.0,
      "drag_term": 0.0,
      "inclination": 87.9055,
      "right_ascension": 294.8755,
      "eccentricity": 0.0001853,
      "argument_of_perigee": 96.1945,
      "mean_anomaly": 263.9397,
      "mean_motion": 13.16595608,
      "revolution_number": 19594,
      "line1": "1 48984U 21060T   25201.55493586  .00000072  00000+0  15388-3 0  9993",
      "line2": "2 48984  87.9055 294.8755 0001853  96.1945 263.9397 13.16595608195941",
      "last_updated": "2025-07-21T05:06:13.714260+00:00",
      "constellation": "oneweb"
    },
    {
      "satellite_name": "ONEWEB-0267",
      "catalog_number": 48985,
      "epoch_year": 2025,
      "epoch_day": 201.49001881,
      "first_derivative": 4.4e-07,
      "second_derivative": 0.0,
      "drag_term": 0.0,
      "inclination": 87.9059,
      "right_ascension": 294.8909,
      "eccentricity": 0.0002291,
      "argument_of_perigee": 97.0624,
      "mean_anomaly": 263.0768,
      "mean_motion": 13.16596033,
      "revolution_number": 19594,
      "line1": "1 48985U 21060U   25201.49001881  .00000044  00000+0  81198-4 0  9992",
      "line2": "2 48985  87.9059 294.8909 0002291  97.0624 263.0768 13.16596033195944",
      "last_updated": "2025-07-21T05:06:13.714262+00:00",
      "constellation": "oneweb"
    },
    {
      "satellite_name": "ONEWEB-0268",
      "catalog_number": 48986,
      "epoch_year": 2025,
      "epoch_day": 201.53437011,
      "first_derivative": 3.4e-07,
      "second_derivative": 0.0,
      "drag_term": 0.0,
      "inclination": 87.9053,
      "right_ascension": 294.8876,
      "eccentricity": 0.000212,
      "argument_of_perigee": 102.0988,
      "mean_anomaly": 258.038,
      "mean_motion": 13.16596238,
      "revolution_number": 19750,
      "line1": "1 48986U 21060V   25201.53437011  .00000034  00000+0  55226-4 0  9998",
      "line2": "2 48986  87.9053 294.8876 0002120 102.0988 258.0380 13.16596238197508",
      "last_updated": "2025-07-21T05:06:13.714264+00:00",
      "constellation": "oneweb"
    }
  ]
}